BEESAT-4                
1 41619U 16040W   21201.71349920  .00002049  00000-0  83153-4 0  9992
2 41619  97.2675 256.8717 0009807 204.8118 155.2650 15.25686036270086
CAS-2T & KS-1Q          
1 41847U 16066G   21201.73126432  .00000174  00000-0  35543-4 0  9993
2 41847  98.5990 260.9965 0366283 120.9931 242.7778 14.38212217246668
NAYIF-1 (EO-88)         
1 42017U 17008BX  21201.75681008  .00002399  00000-0  89478-4 0  9994
2 42017  97.3144 268.7610 0005745   8.4797 351.6539 15.28368285246349
ZHUHAI-1 02 (CAS-4B)    
1 42759U 17034B   21201.76858941  .00000448  00000-0  40236-4 0  9991
2 42759  43.0186 357.9228 0008541   2.7200 130.0948 15.10271714226189
ZHUHAI-1 01 (CAS-4A)    
1 42761U 17034D   21201.82914664  .00000532  00000-0  45161-4 0  9992
2 42761  43.0192 356.6206 0008652   4.8250 157.2772 15.10360310226190
MAX VALIER SAT          
1 42778U 17036P   21201.73153898  .00001407  00000-0  61295-4 0  9994
2 42778  97.2526 249.2489 0013418  63.6688 296.5926 15.23724822226356
RADFXSAT (FOX-1B)       
1 43017U 17073E   21201.67411817  .00000422  00000-0  38008-4 0  9995
2 43017  97.7040 104.3448 0254378 191.6843 167.8398 14.79603996198036
FOX-1D (AO-92)          
1 43137U 18004AC  21201.72418095  .00001535  00000-0  63624-4 0  9992
2 43137  97.4055 275.4161 0010482  94.2505 265.9931 15.25382738195730
DIWATA-2B               
1 43678U 18084H   21201.92450305  .00000472  00000-0  52602-4 0  9995
2 43678  97.9281 327.3839 0008738 305.7475  54.2918 14.91769415148423
ES'HAIL 2               
1 43700U 18090A   21201.86881572  .00000139  00000-0  00000-0 0  9996
2 43700   0.0176  59.5425 0001656  81.3433 136.5168  1.00270363  9708
FOX-1CLIFF (AO-95)      
1 43770U 18099N   21201.70701469 -.00000059  00000-0 -15021-6 0  9999
2 43770  97.6635 271.1581 0013288 310.4776  49.5286 14.95361114143427
ITASAT 1                
1 43786U 18099AE  21201.75357040  .00000537  00000-0  53422-4 0  9997
2 43786  97.6658 271.9049 0013681 302.8744  57.1160 14.95652442143460
JY1SAT (JO-97)          
1 43803U 18099AX  21201.71184487 -.00000001  00000-0  50388-5 0  9992
2 43803  97.6615 271.6122 0013785 302.3300  57.6586 14.95903278143463
UWE-4                   
1 43880U 18111E   21201.74001924  .00000444  00000-0  43675-4 0  9999
2 43880  97.6840 108.9031 0012093 359.4909   0.6298 14.96907253140067
NEXUS (FO-99)           
1 43937U 19003F   21201.83350533  .00001673  00000-0  67635-4 0  9993
2 43937  97.1740 243.6765 0021315 252.6885 107.2022 15.25896154139358
PSAT2 (NO-104)          
1 44354U 19036R   21201.85570508  .00015903  00000-0  20610-3 0  9993
2 44354  28.5301 264.1738 0320733 278.4599  77.9771 15.14711403114049
BRICSAT2 (NO-103)       
1 44355U 19036S   21201.71387334  .00043390 -56805-5  44282-3 0  9994
2 44355  28.5257 214.3919 0253264 359.6787   0.3625 15.32364546114526
JAISAT-1                
1 44419U 19038F   21201.88644221  .00001059  00000-0  62048-4 0  9993
2 44419  97.5903 166.4700 0020467 192.6659 167.4061 15.13860571112857
DUCHIFAT-3              
1 44854U 19089C   21201.88739934  .00000311  00000-0  31199-4 0  9991
2 44854  36.9685 262.9100 0007717  40.7932 319.3388 14.99541857 88128
CAS-6 (TO-108)          
1 44881U 19093C   21201.90065888  .00000036  00000-0  11320-4 0  9997
2 44881  97.9240 280.3648 0014988 178.7425 181.3813 14.81463785 85682
RS-44 & BREEZE-KM R/B   
1 44909U 19096E   21201.77661631  .00000007  00000-0 -17548-4 0  9991
2 44909  82.5209  90.6745 0217899  15.4933 345.2699 12.79710842 73083
ORBITAL FACTORY 2 (OF-2)
1 45113U 19071C   21201.52410718  .00002373  00000-0  77498-4 0  9990
2 45113  51.6410 237.1377 0012357  53.7037 306.5085 15.35996558 82256
HUSKYSAT-1 (HO-107)     
1 45119U 19071J   21201.79535519  .00001677  00000-0  57968-4 0  9998
2 45119  51.6407 235.1931 0011751  51.5953 308.6084 15.36009093 82298
BY70-2                  
1 45857U 20042B   21201.90652728  .00001033  00000-0  15323-3 0  9996
2 45857  97.9829 277.3063 0012864 105.4663 254.7956 14.77121345 56485
SALSAT                  
1 46495U 20068K   21201.93765998 -.00000030  00000-0  23969-5 0  9994
2 46495  97.6956 139.2370 0015959 325.9096  34.1095 15.03493081 44363
BY70-3                  
1 46839U 20079N   21201.92049450  .00002927  00000-0  91486-4 0  9999
2 46839  97.2393 275.1149 0009131  89.4245  27.9280 15.33912253 39330
RADFXSAT-2 (AO-109)     
1 47311U 21002C   21201.60560482  .00001093  00000-0  59080-4 0  9997
2 47311  60.6840 167.0858 0039598  65.3153 295.2048 15.21750457 27910
UVSQ-SAT                
1 47438U 21006AB  21201.71003360  .00000930  00000-0  55977-4 0  9990
2 47438  97.4853 262.3363 0012266 351.0072   9.0937 15.13215844 27083
DIY-1 (ARDUIQUBE)       
1 47963U 21022AH  21201.68662250  .00001996  00000-0  13555-3 0  9994
2 47963  97.5558 103.4315 0018957 186.4895 173.6091 15.07396396 16900
